{"type": "FeatureCollection", "features": [ {"type": "Feature", "properties": {"norad_id": 66858, "name": "STARLINK-35118", "group": "last-30-days", "lat": 10.161208492895843, "lon": -88.56700584045406, "alt_km": 321.56187178908476, "timestamp": "2025-12-15T22:44:27.662048+00:00", "meta": {"OBJECT_NAME": "STARLINK-35118", "OBJECT_ID": "2025-281L", "EPOCH": "2025-12-15T06:00:04.999968", "MEAN_MOTION": 15.84616419, "ECCENTRICITY": 0.00014881, "INCLINATION": 43.0004, "RA_OF_ASC_NODE": 106.8091, "ARG_OF_PERICENTER": 276.3573, "MEAN_ANOMALY": 227.1519, "EPHEMERIS_TYPE": 0, "CLASSIFICATION_TYPE": "U", "NORAD_CAT_ID": 66858, "ELEMENT_SET_NO": 999, "REV_AT_EPOCH": 159, "BSTAR": -0.0058183479, "MEAN_MOTION_DOT": -0.01230457, "MEAN_MOTION_DDOT": 0}, "tle": {"line1": "1 66858U 25281L   25349.25005787 -.01230457  00000+0 -58183-2 0  9998", "line2": "2 66858  43.0004 106.8091 0001488 276.3573 227.1519 15.84616419  1592"}}, "geometry": {"type": "Point", "coordinates": [-88.56700584045406, 10.161208492895843]}}, {"type": "Feature", "properties": {"norad_id": 66859, "name": "STARLINK-35646", "group": "last-30-days", "lat": 8.308211328686541, "lon": -86.50049962467098, "alt_km": 321.9070601089725, "timestamp": "2025-12-15T22:44:27.662058+00:00", "meta": {"OBJECT_NAME": "STARLINK-35646", "OBJECT_ID": "2025-281M", "EPOCH": "2025-12-15T06:00:04.999968", "MEAN_MOTION": 15.84613719, "ECCENTRICITY": 0.00014832, "INCLINATION": 43.0002, "RA_OF_ASC_NODE": 106.8022, "ARG_OF_PERICENTER": 273.364, "MEAN_ANOMALY": 233.0016, "EPHEMERIS_TYPE": 0, "CLASSIFICATION_TYPE": "U", "NORAD_CAT_ID": 66859, "ELEMENT_SET_NO": 999, "REV_AT_EPOCH": 180, "BSTAR": -0.0060457359, "MEAN_MOTION_DOT": -0.01272775, "MEAN_MOTION_DDOT": 0}, "tle": {"line1": "1 66859U 25281M   25349.25005787 -.01272775  00000+0 -60457-2 0  9995", "line2": "2 66859  43.0002 106.8022 0001483 273.3640 233.0016 15.84613719  1804"}}, "geometry": {"type": "Point", "coordinates": [-86.50049962467098, 8.308211328686541]}}, {"type": "Feature", "properties": {"norad_id": 66860, "name": "STARLINK-35987", "group": "last-30-days", "lat": -1.1717880919530965, "lon": -76.26184964324491, "alt_km": 323.72018119657423, "timestamp": "2025-12-15T22:44:27.662068+00:00", "meta": {"OBJECT_NAME": "STARLINK-35987", "OBJECT_ID": "2025-281N", "EPOCH": "2025-12-15T06:00:04.999968", "MEAN_MOTION": 15.84434087, "ECCENTRICITY": 0.00014154, "INCLINATION": 43.0003, "RA_OF_ASC_NODE": 106.7651, "ARG_OF_PERICENTER": 264.7601, "MEAN_ANOMALY": 256.268, "EPHEMERIS_TYPE": 0, "CLASSIFICATION_TYPE": "U", "NORAD_CAT_ID": 66860, "ELEMENT_SET_NO": 999, "REV_AT_EPOCH": 180, "BSTAR": -0.0067571964, "MEAN_MOTION_DOT": -0.01392336, "MEAN_MOTION_DDOT": 0}, "tle": {"line1": "1 66860U 25281N   25349.25005787 -.01392336  00000+0 -67572-2 0  9998", "line2": "2 66860  43.0003 106.7651 0001415 264.7601 256.2680 15.84434087  1803"}}, "geometry": {"type": "Point", "coordinates": [-76.26184964324491, -1.1717880919530965]}}, {"type": "Feature", "properties": {"norad_id": 66861, "name": "STARLINK-35991", "group": "last-30-days", "lat": 4.549955510593516, "lon": -82.39724974292183, "alt_km": 322.68093937732465, "timestamp": "2025-12-15T22:44:27.662080+00:00", "meta": {"OBJECT_NAME": "STARLINK-35991", "OBJECT_ID": "2025-281P", "EPOCH": "2025-12-15T06:00:04.999968", "MEAN_MOTION": 15.84581912, "ECCENTRICITY": 0.00015033, "INCLINATION": 43.0004, "RA_OF_ASC_NODE": 106.7876, "ARG_OF_PERICENTER": 268.2037, "MEAN_ANOMALY": 243.983, "EPHEMERIS_TYPE": 0, "CLASSIFICATION_TYPE": "U", "NORAD_CAT_ID": 66861, "ELEMENT_SET_NO": 999, "REV_AT_EPOCH": 180, "BSTAR": -0.006530086, "MEAN_MOTION_DOT": -0.01360042, "MEAN_MOTION_DDOT": 0}, "tle": {"line1": "1 66861U 25281P   25349.25005787 -.01360042  00000+0 -65301-2 0  9996", "line2": "2 66861  43.0004 106.7876 0001503 268.2037 243.9830 15.84581912  1804"}}, "geometry": {"type": "Point", "coordinates": [-82.39724974292183, 4.549955510593516]}}, {"type": "Feature", "properties": {"norad_id": 66862, "name": "STARLINK-35974", "group": "last-30-days", "lat": 6.358013084656172, "lon": -84.35909838374602, "alt_km": 322.46042604370905, "timestamp": "2025-12-15T22:44:27.662090+00:00", "meta": {"OBJECT_NAME": "STARLINK-35974", "OBJECT_ID": "2025-281Q", "EPOCH": "2025-12-15T06:00:04.999968", "MEAN_MOTION": 15.84605068, "ECCENTRICITY": 0.00014713, "INCLINATION": 43.0003, "RA_OF_ASC_NODE": 106.7947, "ARG_OF_PERICENTER": 274.1585, "MEAN_ANOMALY": 235.2483, "EPHEMERIS_TYPE": 0, "CLASSIFICATION_TYPE": "U", "NORAD_CAT_ID": 66862, "ELEMENT_SET_NO": 999, "REV_AT_EPOCH": 170, "BSTAR": -0.006383427, "MEAN_MOTION_DOT": -0.01334586, "MEAN_MOTION_DDOT": 0}, "tle": {"line1": "1 66862U 25281Q   25349.25005787 -.01334586  00000+0 -63834-2 0  9990", "line2": "2 66862  43.0003 106.7947 0001471 274.1585 235.2483 15.84605068  1707"}}, "geometry": {"type": "Point", "coordinates": [-84.35909838374602, 6.358013084656172]}}, {"type": "Feature", "properties": {"norad_id": 66863, "name": "STARLINK-36134", "group": "last-30-days", "lat": 2.3511566441164216, "lon": -80.03156021654702, "alt_km": 323.3079327098867, "timestamp": "2025-12-15T22:44:27.662102+00:00", "meta": {"OBJECT_NAME": "STARLINK-36134", "OBJECT_ID": "2025-281R", "EPOCH": "2025-12-15T06:00:04.999968", "MEAN_MOTION": 15.84506518, "ECCENTRICITY": 0.00014372, "INCLINATION": 43.0007, "RA_OF_ASC_NODE": 106.779, "ARG_OF_PERICENTER": 271.6665, "MEAN_ANOMALY": 243.985, "EPHEMERIS_TYPE": 0, "CLASSIFICATION_TYPE": "U", "NORAD_CAT_ID": 66863, "ELEMENT_SET_NO": 999, "REV_AT_EPOCH": 180, "BSTAR": -0.0066668865, "MEAN_MOTION_DOT": -0.01380375, "MEAN_MOTION_DDOT": 0}, "tle": {"line1": "1 66863U 25281R   25349.25005787 -.01380375  00000+0 -66669-2 0  9997", "line2": "2 66863  43.0007 106.7790 0001437 271.6665 243.9850 15.84506518  1806"}}, "geometry": {"type": "Point", "coordinates": [-80.03156021654702, 2.3511566441164216]}}, {"type": "Feature", "properties": {"norad_id": 66864, "name": "STARLINK-36070", "group": "last-30-days", "lat": 0.631917592316438, "lon": -78.19116197432386, "alt_km": 323.59047688786814, "timestamp": "2025-12-15T22:44:27.662114+00:00", "meta": {"OBJECT_NAME": "STARLINK-36070", "OBJECT_ID": "2025-281S", "EPOCH": "2025-12-15T06:00:04.999968", "MEAN_MOTION": 15.84474562, "ECCENTRICITY": 0.00014665, "INCLINATION": 43.0007, "RA_OF_ASC_NODE": 106.772, "ARG_OF_PERICENTER": 271.2379, "MEAN_ANOMALY": 247.0304, "EPHEMERIS_TYPE": 0, "CLASSIFICATION_TYPE": "U", "NORAD_CAT_ID": 66864, "ELEMENT_SET_NO": 999, "REV_AT_EPOCH": 183, "BSTAR": -0.0067111664, "MEAN_MOTION_DOT": -0.01386495, "MEAN_MOTION_DDOT": 0}, "tle": {"line1": "1 66864U 25281S   25349.25005787 -.01386495  00000+0 -67112-2 0  9991", "line2": "2 66864  43.0007 106.7720 0001466 271.2379 247.0304 15.84474562  1835"}}, "geometry": {"type": "Point", "coordinates": [-78.19116197432386, 0.631917592316438]}}, {"type": "Feature", "properties": {"norad_id": 66865, "name": "STARLINK-36117", "group": "last-30-days", "lat": -3.0316706276887437, "lon": -74.2679771285436, "alt_km": 324.18061554766973, "timestamp": "2025-12-15T22:44:27.662124+00:00", "meta": {"OBJECT_NAME": "STARLINK-36117", "OBJECT_ID": "2025-281T", "EPOCH": "2025-12-15T06:00:04.999968", "MEAN_MOTION": 15.8438847, "ECCENTRICITY": 0.00014195, "INCLINATION": 43.0007, "RA_OF_ASC_NODE": 106.7582, "ARG_OF_PERICENTER": 268.7409, "MEAN_ANOMALY": 255.1538, "EPHEMERIS_TYPE": 0, "CLASSIFICATION_TYPE": "U", "NORAD_CAT_ID": 66865, "ELEMENT_SET_NO": 999, "REV_AT_EPOCH": 180, "BSTAR": -0.0068267229, "MEAN_MOTION_DOT": -0.01429972, "MEAN_MOTION_DDOT": 0}, "tle": {"line1": "1 66865U 25281T   25349.25005787 -.01429972  00000+0 -68267-2 0  9992", "line2": "2 66865  43.0007 106.7582 0001419 268.7409 255.1538 15.84388470  1803"}}, "geometry": {"type": "Point", "coordinates": [-74.2679771285436, -3.0316706276887437]}}, {"type": "Feature", "properties": {"norad_id": 66866, "name": "STARLINK-36126", "group": "last-30-days", "lat": -4.6535617949445465, "lon": -72.52075649213202, "alt_km": 324.55492492911526, "timestamp": "2025-12-15T22:44:27.662134+00:00", "meta": {"OBJECT_NAME": "STARLINK-36126", "OBJECT_ID": "2025-281U", "EPOCH": "2025-12-15T06:00:04.999968", "MEAN_MOTION": 15.84367255, "ECCENTRICITY": 0.00013778, "INCLINATION": 43.0004, "RA_OF_ASC_NODE": 106.7521, "ARG_OF_PERICENTER": 273.2746, "MEAN_ANOMALY": 253.0776, "EPHEMERIS_TYPE": 0, "CLASSIFICATION_TYPE": "U", "NORAD_CAT_ID": 66866, "ELEMENT_SET_NO": 999, "REV_AT_EPOCH": 183, "BSTAR": -0.0068832233, "MEAN_MOTION_DOT": -0.01439137, "MEAN_MOTION_DDOT": 0}, "tle": {"line1": "1 66866U 25281U   25349.25005787 -.01439137  00000+0 -68832-2 0  9995", "line2": "2 66866  43.0004 106.7521 0001377 273.2746 253.0776 15.84367255  1834"}}, "geometry": {"type": "Point", "coordinates": [-72.52075649213202, -4.6535617949445465]}}, {"type": "Feature", "properties": {"norad_id": 66867, "name": "STARLINK-36101", "group": "last-30-days", "lat": -6.619629861534676, "lon": -70.38536447612063, "alt_km": 324.94000678823704, "timestamp": "2025-12-15T22:44:27.662144+00:00", "meta": {"OBJECT_NAME": "STARLINK-36101", "OBJECT_ID": "2025-281V", "EPOCH": "2025-12-15T06:00:04.999968", "MEAN_MOTION": 15.84309858, "ECCENTRICITY": 0.00012514, "INCLINATION": 43.0008, "RA_OF_ASC_NODE": 106.7443, "ARG_OF_PERICENTER": 272.927, "MEAN_ANOMALY": 256.4972, "EPHEMERIS_TYPE": 0, "CLASSIFICATION_TYPE": "U", "NORAD_CAT_ID": 66867, "ELEMENT_SET_NO": 999, "REV_AT_EPOCH": 164, "BSTAR": -0.006975251, "MEAN_MOTION_DOT": -0.0145252, "MEAN_MOTION_DDOT": 0}, "tle": {"line1": "1 66867U 25281V   25349.25005787 -.01452520  00000+0 -69753-2 0  9990", "line2": "2 66867  43.0008 106.7443 0001251 272.9270 256.4972 15.84309858  1640"}}, "geometry": {"type": "Point", "coordinates": [-70.38536447612063, -6.619629861534676]}}]}